{
    "links": {
        "self": "http://www.neowsapp.com/rest/v1/neo/3825477?api_key=iIulBulltgU6a56xZRHN4H3l9WmuAYTsLGpBGhQ2"
    },
    "id": "3825477",
    "neo_reference_id": "3825477",
    "name": "(2018 LC16)",
    "designation": "2018 LC16",
    "nasa_jpl_url": "http://ssd.jpl.nasa.gov/sbdb.cgi?sstr=3825477",
    "absolute_magnitude_h": 21.8,
    "estimated_diameter": {
        "kilometers": {
            "estimated_diameter_min": 0.1160259082,
            "estimated_diameter_max": 0.2594418179
        },
        "meters": {
            "estimated_diameter_min": 116.0259082094,
            "estimated_diameter_max": 259.4418179074
        },
        "miles": {
            "estimated_diameter_min": 0.0720951346,
            "estimated_diameter_max": 0.1612096218
        },
        "feet": {
            "estimated_diameter_min": 380.6624406898,
            "estimated_diameter_max": 851.1870938635
        }
    },
    "is_potentially_hazardous_asteroid": false,
    "close_approach_data": [
        {
            "close_approach_date": "2016-09-29",
            "close_approach_date_full": "2016-Sep-29 03:24",
            "epoch_date_close_approach": 1475119440000,
            "relative_velocity": {
                "kilometers_per_second": "4.9480593829",
                "kilometers_per_hour": "17813.013778558",
                "miles_per_hour": "11068.3140336824"
            },
            "miss_distance": {
                "astronomical": "1.2780357752",
                "lunar": "497.1559165528",
                "kilometers": "191191429.753718824",
                "miles": "118800845.5805508112"
            },
            "orbiting_body": "Juptr"
        },
        {
            "close_approach_date": "2018-07-27",
            "close_approach_date_full": "2018-Jul-27 01:09",
            "epoch_date_close_approach": 1532653740000,
            "relative_velocity": {
                "kilometers_per_second": "16.8438780967",
                "kilometers_per_hour": "60637.9611480415",
                "miles_per_hour": "37678.0709144595"
            },
            "miss_distance": {
                "astronomical": "0.197616424",
                "lunar": "76.872788936",
                "kilometers": "29562996.10741688",
                "miles": "18369593.971757744"
            },
            "orbiting_body": "Earth"
        },
        {
            "close_approach_date": "2094-07-14",
            "close_approach_date_full": "2094-Jul-14 19:01",
            "epoch_date_close_approach": 3929972460000,
            "relative_velocity": {
                "kilometers_per_second": "19.6548501377",
                "kilometers_per_hour": "70757.4604958215",
                "miles_per_hour": "43965.9342730842"
            },
            "miss_distance": {
                "astronomical": "0.203034666",
                "lunar": "78.980485074",
                "kilometers": "30373553.56976142",
                "miles": "18873251.023970796"
            },
            "orbiting_body": "Earth"
        },
        {
            "close_approach_date": "2100-02-20",
            "close_approach_date_full": "2100-Feb-20 22:14",
            "epoch_date_close_approach": 4106844840000,
            "relative_velocity": {
                "kilometers_per_second": "6.5241869098",
                "kilometers_per_hour": "23487.0728752672",
                "miles_per_hour": "14593.9536985237"
            },
            "miss_distance": {
                "astronomical": "1.7622651149",
                "lunar": "685.5211296961",
                "kilometers": "263631107.564345263",
                "miles": "163812774.1412121094"
            },
            "orbiting_body": "Juptr"
        }
    ],
    "orbital_data": {
        "orbit_id": "7",
        "orbit_determination_date": "2019-07-27 14:01:08",
        "first_observation_date": "2018-06-14",
        "last_observation_date": "2018-07-06",
        "data_arc_in_days": 22,
        "observations_used": 33,
        "orbit_uncertainty": "7",
        "minimum_orbit_intersection": ".181451",
        "jupiter_tisserand_invariant": "3.081",
        "epoch_osculation": "2459000.5",
        "eccentricity": ".7023959766499551",
        "semi_major_axis": "2.448133917740297",
        "inclination": "11.79077243414366",
        "ascending_node_longitude": "183.8749603933481",
        "orbital_period": "1399.107817452545",
        "perihelion_distance": ".7285745036192202",
        "perihelion_argument": "179.7985068441337",
        "aphelion_distance": "4.167693331861374",
        "perihelion_time": "2458362.967668039252",
        "mean_anomaly": "164.0414245728091",
        "mean_motion": ".2573068319034036",
        "equinox": "J2000",
        "orbit_class": {
            "orbit_class_type": "APO",
            "orbit_class_description": "Near-Earth asteroid orbits which cross the Earth’s orbit similar to that of 1862 Apollo",
            "orbit_class_range": "a (semi-major axis) > 1.0 AU; q (perihelion) < 1.017 AU"
        }
    },
    "is_sentry_object": false
}